[{"OBJECT_NAME":"STARLINK-31308","OBJECT_ID":"2024-044B","EPOCH":"2026-03-09T00:19:45.718176","MEAN_MOTION":15.2756777,"ECCENTRICITY":0.00014824,"INCLINATION":43.0032,"RA_OF_ASC_NODE":64.0106,"ARG_OF_PERICENTER":280.6696,"MEAN_ANOMALY":79.3989,"EPHEMERIS_TYPE":0,"CLASSIFICATION_TYPE":"U","NORAD_CAT_ID":59153,"ELEMENT_SET_NO":999,"REV_AT_EPOCH":11404,"BSTAR":3.592067e-5,"MEAN_MOTION_DOT":7.26e-6,"MEAN_MOTION_DDOT":0},{"OBJECT_NAME":"CZ-6A DEB","OBJECT_ID":"2024-140AAN","EPOCH":"2026-03-09T15:08:07.195776","MEAN_MOTION":15.20547394,"ECCENTRICITY":0.0064261,"INCLINATION":89.3669,"RA_OF_ASC_NODE":306.3092,"ARG_OF_PERICENTER":93.6352,"MEAN_ANOMALY":267.2246,"EPHEMERIS_TYPE":0,"CLASSIFICATION_TYPE":"U","NORAD_CAT_ID":61480,"ELEMENT_SET_NO":999,"REV_AT_EPOCH":8198,"BSTAR":0.0033609,"MEAN_MOTION_DOT":0.00078405,"MEAN_MOTION_DDOT":0}]
